{"type": "FeatureCollection", "features": [ {"type": "Feature", "properties": {"norad_id": 40534, "name": "GPS BIIF-9  (PRN 26)", "group": "gps-ops", "lat": 21.595368888311654, "lon": 14.897662115694779, "alt_km": 20293.718583351554, "timestamp": "2025-12-07T07:31:36.557226+00:00", "meta": {"OBJECT_NAME": "GPS BIIF-9  (PRN 26)", "OBJECT_ID": "2015-013A", "EPOCH": "2025-12-06T14:33:06.415200", "MEAN_MOTION": 2.0056283, "ECCENTRICITY": 0.010678, "INCLINATION": 53.1987, "RA_OF_ASC_NODE": 212.1443, "ARG_OF_PERICENTER": 38.3324, "MEAN_ANOMALY": 322.5165, "EPHEMERIS_TYPE": 0, "CLASSIFICATION_TYPE": "U", "NORAD_CAT_ID": 40534, "ELEMENT_SET_NO": 999, "REV_AT_EPOCH": 7796, "BSTAR": 0, "MEAN_MOTION_DOT": 4.8e-07, "MEAN_MOTION_DDOT": 0}, "tle": {"line1": "1 40534U 15013A   25340.60632425  .00000048  00000+0  00000+0 0  9998", "line2": "2 40534  53.1987 212.1443 0106780  38.3324 322.5165  2.00562830 77962"}}, "geometry": {"type": "Point", "coordinates": [14.897662115694779, 21.595368888311654]}}, {"type": "Feature", "properties": {"norad_id": 40730, "name": "GPS BIIF-10 (PRN 08)", "group": "gps-ops", "lat": 27.6801559356569, "lon": -62.751849363681465, "alt_km": 19888.169719401933, "timestamp": "2025-12-07T07:31:36.557237+00:00", "meta": {"OBJECT_NAME": "GPS BIIF-10 (PRN 08)", "OBJECT_ID": "2015-033A", "EPOCH": "2025-12-06T18:25:25.771296", "MEAN_MOTION": 2.00565806, "ECCENTRICITY": 0.01105805, "INCLINATION": 54.136, "RA_OF_ASC_NODE": 275.0186, "ARG_OF_PERICENTER": 26.6621, "MEAN_ANOMALY": 333.9145, "EPHEMERIS_TYPE": 0, "CLASSIFICATION_TYPE": "U", "NORAD_CAT_ID": 40730, "ELEMENT_SET_NO": 999, "REV_AT_EPOCH": 7613, "BSTAR": 0, "MEAN_MOTION_DOT": -3.1e-07, "MEAN_MOTION_DDOT": 0}, "tle": {"line1": "1 40730U 15033A   25340.76765939 -.00000031  00000+0  00000+0 0  9995", "line2": "2 40730  54.1360 275.0186 0110580  26.6621 333.9145  2.00565806 76139"}}, "geometry": {"type": "Point", "coordinates": [-62.751849363681465, 27.6801559356569]}}, {"type": "Feature", "properties": {"norad_id": 41019, "name": "GPS BIIF-11 (PRN 10)", "group": "gps-ops", "lat": -7.144124947232703, "lon": 33.53313516973022, "alt_km": 20335.58933099433, "timestamp": "2025-12-07T07:31:36.557249+00:00", "meta": {"OBJECT_NAME": "GPS BIIF-11 (PRN 10)", "OBJECT_ID": "2015-062A", "EPOCH": "2025-12-06T07:52:58.423872", "MEAN_MOTION": 2.0056703, "ECCENTRICITY": 0.01106332, "INCLINATION": 56.8275, "RA_OF_ASC_NODE": 38.2504, "ARG_OF_PERICENTER": 229.7544, "MEAN_ANOMALY": 129.3288, "EPHEMERIS_TYPE": 0, "CLASSIFICATION_TYPE": "U", "NORAD_CAT_ID": 41019, "ELEMENT_SET_NO": 999, "REV_AT_EPOCH": 7396, "BSTAR": 0, "MEAN_MOTION_DOT": -6.9e-07, "MEAN_MOTION_DDOT": 0}, "tle": {"line1": "1 41019U 15062A   25340.32845398 -.00000069  00000+0  00000+0 0  9999", "line2": "2 41019  56.8275  38.2504 0110633 229.7544 129.3288  2.00567030 73960"}}, "geometry": {"type": "Point", "coordinates": [33.53313516973022, -7.144124947232703]}}, {"type": "Feature", "properties": {"norad_id": 41328, "name": "GPS BIIF-12 (PRN 32)", "group": "gps-ops", "lat": -49.892836367253416, "lon": 42.12867423280546, "alt_km": 20024.989496059687, "timestamp": "2025-12-07T07:31:36.557260+00:00", "meta": {"OBJECT_NAME": "GPS BIIF-12 (PRN 32)", "OBJECT_ID": "2016-007A", "EPOCH": "2025-12-05T09:55:37.612128", "MEAN_MOTION": 2.00560998, "ECCENTRICITY": 0.00917952, "INCLINATION": 55.402, "RA_OF_ASC_NODE": 97.1478, "ARG_OF_PERICENTER": 243.3887, "MEAN_ANOMALY": 115.6411, "EPHEMERIS_TYPE": 0, "CLASSIFICATION_TYPE": "U", "NORAD_CAT_ID": 41328, "ELEMENT_SET_NO": 999, "REV_AT_EPOCH": 7195, "BSTAR": 0, "MEAN_MOTION_DOT": -1.1e-07, "MEAN_MOTION_DDOT": 0}, "tle": {"line1": "1 41328U 16007A   25339.41362977 -.00000011  00000+0  00000+0 0  9994", "line2": "2 41328  55.4020  97.1478 0091795 243.3887 115.6411  2.00560998 71958"}}, "geometry": {"type": "Point", "coordinates": [42.12867423280546, -49.892836367253416]}}, {"type": "Feature", "properties": {"norad_id": 43873, "name": "GPS BIII-1  (PRN 04)", "group": "gps-ops", "lat": -4.691222956272444, "lon": -77.02363427932266, "alt_km": 20086.40130947157, "timestamp": "2025-12-07T07:31:36.557271+00:00", "meta": {"OBJECT_NAME": "GPS BIII-1  (PRN 04)", "OBJECT_ID": "2018-109A", "EPOCH": "2025-12-06T13:44:13.581888", "MEAN_MOTION": 2.00553236, "ECCENTRICITY": 0.00371783, "INCLINATION": 55.5639, "RA_OF_ASC_NODE": 99.7903, "ARG_OF_PERICENTER": 194.7301, "MEAN_ANOMALY": 175.7639, "EPHEMERIS_TYPE": 0, "CLASSIFICATION_TYPE": "U", "NORAD_CAT_ID": 43873, "ELEMENT_SET_NO": 999, "REV_AT_EPOCH": 5121, "BSTAR": 0, "MEAN_MOTION_DOT": -4e-08, "MEAN_MOTION_DDOT": 0}, "tle": {"line1": "1 43873U 18109A   25340.57237942 -.00000004  00000+0  00000+0 0  9990", "line2": "2 43873  55.5639  99.7903 0037178 194.7301 175.7639  2.00553236 51211"}}, "geometry": {"type": "Point", "coordinates": [-77.02363427932266, -4.691222956272444]}}, {"type": "Feature", "properties": {"norad_id": 44506, "name": "GPS BIII-2  (PRN 18)", "group": "gps-ops", "lat": 54.86433949672672, "lon": 54.4798227681701, "alt_km": 20243.761325925756, "timestamp": "2025-12-07T07:31:36.557288+00:00", "meta": {"OBJECT_NAME": "GPS BIII-2  (PRN 18)", "OBJECT_ID": "2019-056A", "EPOCH": "2025-12-06T22:22:18.882336", "MEAN_MOTION": 2.00565727, "ECCENTRICITY": 0.00577801, "INCLINATION": 55.7235, "RA_OF_ASC_NODE": 338.7828, "ARG_OF_PERICENTER": 198.4731, "MEAN_ANOMALY": 328.5143, "EPHEMERIS_TYPE": 0, "CLASSIFICATION_TYPE": "U", "NORAD_CAT_ID": 44506, "ELEMENT_SET_NO": 999, "REV_AT_EPOCH": 4621, "BSTAR": 0, "MEAN_MOTION_DOT": -8.2e-07, "MEAN_MOTION_DDOT": 0}, "tle": {"line1": "1 44506U 19056A   25340.93216299 -.00000082  00000+0  00000+0 0  9994", "line2": "2 44506  55.7235 338.7828 0057780 198.4731 328.5143  2.00565727 46210"}}, "geometry": {"type": "Point", "coordinates": [54.4798227681701, 54.86433949672672]}}, {"type": "Feature", "properties": {"norad_id": 45854, "name": "GPS BIII-3  (PRN 23)", "group": "gps-ops", "lat": 21.850323370606503, "lon": 51.77808552696702, "alt_km": 20340.012946046496, "timestamp": "2025-12-07T07:31:36.557300+00:00", "meta": {"OBJECT_NAME": "GPS BIII-3  (PRN 23)", "OBJECT_ID": "2020-041A", "EPOCH": "2025-12-06T06:48:20.878272", "MEAN_MOTION": 2.00561679, "ECCENTRICITY": 0.00603304, "INCLINATION": 56.5425, "RA_OF_ASC_NODE": 36.4371, "ARG_OF_PERICENTER": 203.1563, "MEAN_ANOMALY": 159.699, "EPHEMERIS_TYPE": 0, "CLASSIFICATION_TYPE": "U", "NORAD_CAT_ID": 45854, "ELEMENT_SET_NO": 999, "REV_AT_EPOCH": 4017, "BSTAR": 0, "MEAN_MOTION_DOT": -7e-07, "MEAN_MOTION_DDOT": 0}, "tle": {"line1": "1 45854U 20041A   25340.28357498 -.00000070  00000+0  00000+0 0  9999", "line2": "2 45854  56.5425  36.4371 0060330 203.1563 159.6990  2.00561679 40178"}}, "geometry": {"type": "Point", "coordinates": [51.77808552696702, 21.850323370606503]}}, {"type": "Feature", "properties": {"norad_id": 46826, "name": "GPS BIII-4  (PRN 14)", "group": "gps-ops", "lat": -1.8903572420421582, "lon": -142.80235208980113, "alt_km": 20334.847199208103, "timestamp": "2025-12-07T07:31:36.557312+00:00", "meta": {"OBJECT_NAME": "GPS BIII-4  (PRN 14)", "OBJECT_ID": "2020-078A", "EPOCH": "2025-11-12T03:01:29.191584", "MEAN_MOTION": 2.00567032, "ECCENTRICITY": 0.00639112, "INCLINATION": 54.0223, "RA_OF_ASC_NODE": 219.5836, "ARG_OF_PERICENTER": 203.4986, "MEAN_ANOMALY": 326.7753, "EPHEMERIS_TYPE": 0, "CLASSIFICATION_TYPE": "U", "NORAD_CAT_ID": 46826, "ELEMENT_SET_NO": 999, "REV_AT_EPOCH": 3715, "BSTAR": 0, "MEAN_MOTION_DOT": -3.4e-07, "MEAN_MOTION_DDOT": 0}, "tle": {"line1": "1 46826U 20078A   25316.12603231 -.00000034  00000+0  00000+0 0  9994", "line2": "2 46826  54.0223 219.5836 0063911 203.4986 326.7753  2.00567032 37154"}}, "geometry": {"type": "Point", "coordinates": [-142.80235208980113, -1.8903572420421582]}}, {"type": "Feature", "properties": {"norad_id": 48859, "name": "GPS BIII-5  (PRN 11)", "group": "gps-ops", "lat": -2.3651712119634825, "lon": 161.81030220632965, "alt_km": 20141.784039376616, "timestamp": "2025-12-07T07:31:36.557324+00:00", "meta": {"OBJECT_NAME": "GPS BIII-5  (PRN 11)", "OBJECT_ID": "2021-054A", "EPOCH": "2025-11-30T17:12:22.002912", "MEAN_MOTION": 2.00553932, "ECCENTRICITY": 0.0024653, "INCLINATION": 55.2606, "RA_OF_ASC_NODE": 340.4377, "ARG_OF_PERICENTER": 232.9477, "MEAN_ANOMALY": 227.2059, "EPHEMERIS_TYPE": 0, "CLASSIFICATION_TYPE": "U", "NORAD_CAT_ID": 48859, "ELEMENT_SET_NO": 999, "REV_AT_EPOCH": 3277, "BSTAR": 0, "MEAN_MOTION_DOT": -5.5e-07, "MEAN_MOTION_DDOT": 0}, "tle": {"line1": "1 48859U 21054A   25334.71692133 -.00000055  00000+0  00000+0 0  9994", "line2": "2 48859  55.2606 340.4377 0024653 232.9477 227.2059  2.00553932 32777"}}, "geometry": {"type": "Point", "coordinates": [161.81030220632965, -2.3651712119634825]}}, {"type": "Feature", "properties": {"norad_id": 55268, "name": "GPS BIII-6  (PRN 28)", "group": "gps-ops", "lat": -35.721752384010095, "lon": 6.192189141453325, "alt_km": 20193.842028827115, "timestamp": "2025-12-07T07:31:36.557335+00:00", "meta": {"OBJECT_NAME": "GPS BIII-6  (PRN 28)", "OBJECT_ID": "2023-009A", "EPOCH": "2025-12-03T18:12:38.807136", "MEAN_MOTION": 2.00556312, "ECCENTRICITY": 0.00036355, "INCLINATION": 55.1062, "RA_OF_ASC_NODE": 156.1984, "ARG_OF_PERICENTER": 358.5946, "MEAN_ANOMALY": 180.1179, "EPHEMERIS_TYPE": 0, "CLASSIFICATION_TYPE": "U", "NORAD_CAT_ID": 55268, "ELEMENT_SET_NO": 999, "REV_AT_EPOCH": 2132, "BSTAR": 0, "MEAN_MOTION_DOT": 9.9e-07, "MEAN_MOTION_DDOT": 0}, "tle": {"line1": "1 55268U 23009A   25337.75878249  .00000099  00000+0  00000+0 0  9996", "line2": "2 55268  55.1062 156.1984 0003635 358.5946 180.1179  2.00556312 21327"}}, "geometry": {"type": "Point", "coordinates": [6.192189141453325, -35.721752384010095]}}]}